[{"OBJECT_NAME":"STARLINK-34469","OBJECT_ID":"2025-137X","EPOCH":"2026-03-09T22:05:41.409888","MEAN_MOTION":15.30205059,"ECCENTRICITY":0.00010363,"INCLINATION":53.1596,"RA_OF_ASC_NODE":333.9228,"ARG_OF_PERICENTER":73.1634,"MEAN_ANOMALY":286.948,"EPHEMERIS_TYPE":0,"CLASSIFICATION_TYPE":"U","NORAD_CAT_ID":64615,"ELEMENT_SET_NO":999,"REV_AT_EPOCH":4077,"BSTAR":0.00082345756,"MEAN_MOTION_DOT":0.00024112,"MEAN_MOTION_DDOT":0},{"OBJECT_NAME":"SL-12 DEB","OBJECT_ID":"1990-045J","EPOCH":"2026-03-09T11:34:05.054016","MEAN_MOTION":4.76953837,"ECCENTRICITY":0.54197028,"INCLINATION":65.1199,"RA_OF_ASC_NODE":59.3182,"ARG_OF_PERICENTER":47.1619,"MEAN_ANOMALY":347.2368,"EPHEMERIS_TYPE":0,"CLASSIFICATION_TYPE":"U","NORAD_CAT_ID":48417,"ELEMENT_SET_NO":999,"REV_AT_EPOCH":20677,"BSTAR":0.0029484769,"MEAN_MOTION_DOT":2.286e-5,"MEAN_MOTION_DDOT":0}]
